[{"OBJECT_NAME":"STARLINK-32441","OBJECT_ID":"2024-193H","EPOCH":"2026-03-09T08:29:21.978240","MEAN_MOTION":15.30192515,"ECCENTRICITY":0.00011818,"INCLINATION":53.1604,"RA_OF_ASC_NODE":92.6773,"ARG_OF_PERICENTER":107.0452,"MEAN_ANOMALY":253.0678,"EPHEMERIS_TYPE":0,"CLASSIFICATION_TYPE":"U","NORAD_CAT_ID":61668,"ELEMENT_SET_NO":999,"REV_AT_EPOCH":7647,"BSTAR":3.271682e-5,"MEAN_MOTION_DOT":6.1e-6,"MEAN_MOTION_DDOT":0},{"OBJECT_NAME":"TEVEL2-8","OBJECT_ID":"2025-052AF","EPOCH":"2026-03-09T16:02:08.542752","MEAN_MOTION":15.28392908,"ECCENTRICITY":0.0008031,"INCLINATION":97.4055,"RA_OF_ASC_NODE":324.2923,"ARG_OF_PERICENTER":124.9191,"MEAN_ANOMALY":235.2804,"EPHEMERIS_TYPE":0,"CLASSIFICATION_TYPE":"U","NORAD_CAT_ID":63239,"ELEMENT_SET_NO":999,"REV_AT_EPOCH":5480,"BSTAR":0.00069303947,"MEAN_MOTION_DOT":0.0001913,"MEAN_MOTION_DDOT":0}]
